[{"OBJECT_NAME":"STARLINK-5591","OBJECT_ID":"2023-028AG","EPOCH":"2026-03-09T19:46:08.982048","MEAN_MOTION":14.98331041,"ECCENTRICITY":0.00030516,"INCLINATION":69.9995,"RA_OF_ASC_NODE":224.0962,"ARG_OF_PERICENTER":271.1011,"MEAN_ANOMALY":88.9798,"EPHEMERIS_TYPE":0,"CLASSIFICATION_TYPE":"U","NORAD_CAT_ID":55771,"ELEMENT_SET_NO":999,"REV_AT_EPOCH":16655,"BSTAR":0.00012836784,"MEAN_MOTION_DOT":1.439e-5,"MEAN_MOTION_DDOT":0},{"OBJECT_NAME":"COSMOS 249 DEB","OBJECT_ID":"1968-091DJ","EPOCH":"2026-03-09T22:59:41.072064","MEAN_MOTION":14.2447733,"ECCENTRICITY":0.04678273,"INCLINATION":62.7651,"RA_OF_ASC_NODE":269.2895,"ARG_OF_PERICENTER":43.0913,"MEAN_ANOMALY":320.579,"EPHEMERIS_TYPE":0,"CLASSIFICATION_TYPE":"U","NORAD_CAT_ID":19362,"ELEMENT_SET_NO":999,"REV_AT_EPOCH":90582,"BSTAR":0.0013749035,"MEAN_MOTION_DOT":0.00010099,"MEAN_MOTION_DDOT":0}]
